     2              NAVIGATION DATA                         RINEX VERSION / TYPE
CCRINEXN V1.6.0 UX  CDDIS               03-NOV-16 15:33     PGM / RUN BY / DATE 
IGS BROADCAST EPHEMERIS FILE                                COMMENT             
    0.1211D-07 -0.7451D-08 -0.1192D-06  0.5960D-07          ION ALPHA           
    0.9626D+05 -0.3277D+05 -0.1966D+06  0.1966D+06          ION BETA            
    0.186264514923D-08 0.177635683940D-14   503808     1921 DELTA-UTC: A0,A1,T,W
    17                                                      LEAP SECONDS        
                                                            END OF HEADER       
 1 16 11  2  0  0  0.0 0.391290523112D-04 0.125055521494D-11 0.000000000000D+00
    0.290000000000D+02 0.257187500000D+02 0.455233248006D-08 0.133031307834D+01
    0.129453837872D-05 0.596430455335D-02 0.730156898499D-05 0.515369638061D+04
    0.259200000000D+06-0.149011611938D-07 0.124186617479D+01 0.670552253723D-07
    0.965246367208D+00 0.240500000000D+03 0.565120887210D+00-0.805747848346D-08
    0.459304846176D-09 0.100000000000D+01 0.192100000000D+04 0.000000000000D+00
    0.200000000000D+01 0.000000000000D+00 0.512227416039D-08 0.290000000000D+02
    0.259170000000D+06 0.400000000000D+01 0.000000000000D+00 0.000000000000D+00
 2 16 11  2  0  0  0.0 0.531551428139D-03-0.545696821064D-11 0.000000000000D+00
    0.600000000000D+02 0.275312500000D+02 0.493699135979D-08 0.180364927689D+01
    0.129640102386D-05 0.160766134504D-01 0.742264091969D-05 0.515366400909D+04
    0.259200000000D+06-0.316649675369D-06 0.119290042098D+01-0.363215804100D-06
    0.944114249302D+00 0.226843750000D+03-0.207238300074D+01-0.824248618978D-08
    0.554665961207D-09 0.000000000000D+00 0.192100000000D+04 0.000000000000D+00
    0.200000000000D+01 0.000000000000D+00-0.200234353542D-07 0.600000000000D+02
    0.259170000000D+06 0.400000000000D+01 0.000000000000D+00 0.000000000000D+00
 3 16 11  2  0  0  0.0-0.959280878305D-04-0.272848410532D-11 0.000000000000D+00
    0.360000000000D+02-0.265312500000D+02 0.491806199988D-08-0.605203065137D-02
   -0.140443444252D-05 0.323859276250D-03 0.618398189545D-05 0.515358198738D+04
    0.259200000000D+06 0.372529029846D-07 0.228413603907D+01 0.279396772385D-07
    0.959343042180D+00 0.263656250000D+03 0.796598409041D+00-0.815283959849D-08
   -0.291797868838D-09 0.100000000000D+01 0.192100000000D+04 0.000000000000D+00
    0.200000000000D+01 0.000000000000D+00 0.186264514923D-08 0.360000000000D+02
    0.258270000000D+06 0.400000000000D+01 0.000000000000D+00 0.000000000000D+00
 4 16 11  2  0  0  0.0 0.129798427224D-04 0.295585778076D-11 0.000000000000D+00
    0.540000000000D+02 0.599687500000D+02 0.421338979031D-08-0.138463865240D+01
    0.308454036713D-05 0.838772661518D-02 0.117477029562D-04 0.515360053444D+04
    0.259200000000D+06-0.201165676117D-06-0.283986085069D+01-0.558793544769D-08
    0.966572101608D+00 0.161093750000D+03-0.978967093429D+00-0.784818405123D-08
   -0.342871424828D-10 0.000000000000D+00 0.192100000000D+04 0.000000000000D+00
    0.400000000000D+01 0.630000000000D+02-0.419095158577D-08 0.540000000000D+02
    0.259170000000D+06 0.400000000000D+01 0.000000000000D+00 0.000000000000D+00
 6 16 11  2  0  0  0.0 0.267480500042D-03 0.500222085975D-11 0.000000000000D+00
    0.800000000000D+02 0.282187500000D+02 0.445589989183D-08 0.203874065549D+01
    0.159069895744D-05 0.239510089159D-03 0.726617872715D-05 0.515379181671D+04
    0.259200000000D+06 0.204890966415D-07 0.123346777276D+01-0.596046447754D-07
    0.965057239696D+00 0.239906250000D+03-0.180108407637D+01-0.797140346952D-08
    0.543951229181D-09 0.000000000000D+00 0.192100000000D+04 0.000000000000D+00
    0.200000000000D+01 0.000000000000D+00 0.419095158577D-08 0.800000000000D+02
    0.259170000000D+06 0.400000000000D+01 0.000000000000D+00 0.000000000000D+00
 7 16 11  2  0  0  0.0 0.414477195591D-03-0.318323145621D-11 0.000000000000D+00
    0.130000000000D+02 0.990312500000D+02 0.468483799945D-08 0.679576878168D+00
    0.527687370777D-05 0.100361792138D-01 0.443868339062D-05 0.515362695503D+04
    0.259200000000D+06 0.000000000000D+00-0.188295799683D+01 0.707805156708D-07
    0.964453113046D+00 0.293250000000D+03-0.261667621646D+01-0.844785188694D-08
    0.139291516337D-09 0.000000000000D+00 0.192100000000D+04 0.000000000000D+00
    0.200000000000D+01 0.000000000000D+00-0.111758708954D-07 0.130000000000D+02
    0.259170000000D+06 0.400000000000D+01 0.000000000000D+00 0.000000000000D+00
 8 16 11  2  0  0  0.0-0.375024974346D-04-0.136424205266D-11 0.000000000000D+00
    0.160000000000D+02-0.756250000000D+02 0.408624163694D-08-0.203133817883D+01
   -0.384636223316D-05 0.190269632731D-02 0.113230198622D-04 0.515377805138D+04
    0.259200000000D+06 0.204890966415D-07 0.180478234352D+00 0.447034835815D-07
    0.965176926876D+00 0.163625000000D+03-0.101101592005D+01-0.778568144774D-08
    0.700029159024D-10 0.100000000000D+01 0.192100000000D+04 0.000000000000D+00
    0.200000000000D+01 0.000000000000D+00 0.512227416039D-08 0.160000000000D+02
    0.258270000000D+06 0.400000000000D+01 0.000000000000D+00 0.000000000000D+00
 9 16 11  2  0  0  0.0 0.236507039517D-03 0.727595761418D-11 0.000000000000D+00
    0.730000000000D+02 0.401250000000D+02 0.451697390602D-08-0.265544639386D+01
    0.212155282497D-05 0.647255918011D-03 0.114776194096D-04 0.515376168060D+04
    0.259200000000D+06-0.931322574616D-08-0.296138837698D+01-0.931322574616D-08
    0.954820428012D+00 0.155750000000D+03 0.181867434087D+01-0.790425769282D-08
   -0.196079597004D-09 0.100000000000D+01 0.192100000000D+04 0.000000000000D+00
    0.200000000000D+01 0.000000000000D+00 0.139698386192D-08 0.730000000000D+02
    0.259200000000D+06 0.000000000000D+00 0.000000000000D+00 0.000000000000D+00
10 16 11  2  0  0  0.0-0.111936125904D-03-0.227373675443D-11 0.000000000000D+00
    0.108000000000D+03-0.288125000000D+02 0.482841540860D-08-0.720878617751D+00
   -0.149197876453D-05 0.184407376219D-02 0.633299350739D-05 0.515367203331D+04
    0.259200000000D+06 0.335276126862D-07 0.228026555867D+01 0.167638063431D-07
    0.959547253840D+00 0.255312500000D+03-0.292898597477D+01-0.814426781287D-08
   -0.317870383435D-09 0.100000000000D+01 0.192100000000D+04 0.000000000000D+00
    0.300000000000D+01 0.000000000000D+00 0.232830643654D-08 0.108000000000D+03
    0.259200000000D+06 0.000000000000D+00 0.000000000000D+00 0.000000000000D+00
11 16 11  2  0  0  0.0-0.669271685183D-03-0.227373675443D-11 0.000000000000D+00
    0.280000000000D+02 0.875000000000D+01 0.595274795585D-08 0.765843148715D+00
    0.383704900742D-06 0.167781533673D-01 0.956282019615D-05 0.515368388176D+04
    0.259200000000D+06-0.191852450371D-06 0.853661161340D+00-0.121071934700D-06
    0.898323808918D+00 0.165718750000D+03 0.159441247228D+01-0.894358682200D-08
    0.466805158594D-09 0.100000000000D+01 0.192100000000D+04 0.000000000000D+00
    0.200000000000D+01 0.000000000000D+00-0.121071934700D-07 0.280000000000D+02
    0.258270000000D+06 0.400000000000D+01 0.000000000000D+00 0.000000000000D+00
12 16 11  2  0  0  0.0 0.389440450817D-03 0.113686837722D-12 0.000000000000D+00
    0.660000000000D+02-0.774062500000D+02 0.405909764914D-08 0.878862621413D-01
   -0.407360494137D-05 0.606568867806D-02 0.381469726562D-05 0.515363731194D+04
    0.259200000000D+06 0.000000000000D+00-0.802813269789D+00 0.614672899246D-07
    0.989989732040D+00 0.319750000000D+03 0.783691489519D+00-0.810783772399D-08
   -0.375372778640D-09 0.100000000000D+01 0.192100000000D+04 0.000000000000D+00
    0.200000000000D+01 0.000000000000D+00-0.125728547573D-07 0.660000000000D+02
    0.259170000000D+06 0.400000000000D+01 0.000000000000D+00 0.000000000000D+00
13 16 11  2  0  0  0.0-0.526239164174D-04-0.204636307899D-11 0.000000000000D+00
    0.101000000000D+03 0.586250000000D+02 0.410481382218D-08 0.169926080874D+01
    0.306963920593D-05 0.400741293561D-02 0.113975256681D-04 0.515369483566D+04
    0.259200000000D+06 0.707805156708D-07-0.283834069155D+01-0.372529029846D-07
    0.971051782056D+00 0.165843750000D+03 0.191137121747D+01-0.766781926842D-08
   -0.739316524667D-10 0.100000000000D+01 0.192100000000D+04 0.000000000000D+00
    0.280000000000D+01 0.000000000000D+00-0.111758708954D-07 0.101000000000D+03
    0.259200000000D+06 0.000000000000D+00 0.000000000000D+00 0.000000000000D+00
15 16 11  2  0  0  0.0-0.332906842232D-03-0.125055521494D-11 0.000000000000D+00
    0.800000000000D+02 0.354687500000D+02 0.499663670140D-08 0.271255784085D+01
    0.187009572983D-05 0.871480687056D-02 0.112187117338D-04 0.515370293236D+04
    0.259200000000D+06-0.987201929092D-07-0.301783193896D+01-0.968575477600D-07
    0.930496442295D+00 0.147843750000D+03 0.522104822687D+00-0.800747640068D-08
   -0.201436962087D-09 0.100000000000D+01 0.192100000000D+04 0.000000000000D+00
    0.200000000000D+01 0.000000000000D+00-0.107102096081D-07 0.800000000000D+02
    0.256050000000D+06 0.400000000000D+01 0.000000000000D+00 0.000000000000D+00
16 16 11  2  0  0  0.0 0.137411989272D-04 0.159161572810D-11 0.000000000000D+00
    0.710000000000D+02-0.895625000000D+02 0.397302279964D-08-0.185978783654D+01
   -0.461749732494D-05 0.873756653164D-02 0.402890145779D-05 0.515358995056D+04
    0.259200000000D+06 0.186264514923D-07-0.783997868452D+00-0.670552253723D-07
    0.990498956269D+00 0.317281250000D+03 0.383501093994D+00-0.795854582236D-08
   -0.272154188075D-09 0.100000000000D+01 0.192100000000D+04 0.000000000000D+00
    0.200000000000D+01 0.000000000000D+00-0.102445483208D-07 0.710000000000D+02
    0.259200000000D+06 0.000000000000D+00 0.000000000000D+00 0.000000000000D+00
